{
  "type": "FeatureCollection",
  "features": [
    {
      "type": "Feature",
      "properties": {
        "norad_id": 64902,
        "name": "CO3D 2",
        "group": "resource",
        "lat": -49.29008871575428,
        "lon": 61.415565084084605,
        "alt_km": 512.7757762723204,
        "timestamp": "2025-12-02T06:27:52.679157+00:00",
        "meta_object_name": "CO3D 2",
        "meta_object_id": "2025-156D",
        "meta_epoch": "2025-12-01T19:37:31.764000",
        "meta_mean_motion": 15.20212258,
        "meta_eccentricity": 9.93e-05,
        "meta_inclination": 97.4353,
        "meta_ra_of_asc_node": 52.2404,
        "meta_arg_of_pericenter": 118.7701,
        "meta_mean_anomaly": 241.3634,
        "meta_ephemeris_type": 0,
        "meta_classification_type": "U",
        "meta_norad_cat_id": 64902,
        "meta_element_set_no": 999,
        "meta_rev_at_epoch": 1954,
        "meta_bstar": 0.00031387,
        "meta_mean_motion_dot": 6.735e-05,
        "meta_mean_motion_ddot": 0,
        "tle_line1": "1 64902U 25156D   25335.81772875  .00006735  00000+0  31387-3 0  9998",
        "tle_line2": "2 64902  97.4353  52.2404 0000993 118.7701 241.3634 15.20212258 19547"
      },
      "geometry": {
        "type": "Point",
        "coordinates": [
          61.415565084084605,
          -49.29008871575428
        ]
      }
    },
    {
      "type": "Feature",
      "properties": {
        "norad_id": 64903,
        "name": "CO3D 1",
        "group": "resource",
        "lat": -50.15211447502654,
        "lon": 61.688264171897046,
        "alt_km": 512.8408126562481,
        "timestamp": "2025-12-02T06:27:52.679166+00:00",
        "meta_object_name": "CO3D 1",
        "meta_object_id": "2025-156E",
        "meta_epoch": "2025-12-01T21:12:32.372064",
        "meta_mean_motion": 15.20195514,
        "meta_eccentricity": 9.98e-05,
        "meta_inclination": 97.4354,
        "meta_ra_of_asc_node": 52.3054,
        "meta_arg_of_pericenter": 114.4338,
        "meta_mean_anomaly": 245.7002,
        "meta_ephemeris_type": 0,
        "meta_classification_type": "U",
        "meta_norad_cat_id": 64903,
        "meta_element_set_no": 999,
        "meta_rev_at_epoch": 1955,
        "meta_bstar": 0.00045831,
        "meta_mean_motion_dot": 9.865e-05,
        "meta_mean_motion_ddot": 0,
        "tle_line1": "1 64903U 25156E   25335.88370801  .00009865  00000+0  45831-3 0  9995",
        "tle_line2": "2 64903  97.4354  52.3054 0000998 114.4338 245.7002 15.20195514 19558"
      },
      "geometry": {
        "type": "Point",
        "coordinates": [
          61.688264171897046,
          -50.15211447502654
        ]
      }
    },
    {
      "type": "Feature",
      "properties": {
        "norad_id": 66514,
        "name": "SENTINEL-6B",
        "group": "resource",
        "lat": -44.6062688155381,
        "lon": 158.2825079271028,
        "alt_km": 1317.007473031048,
        "timestamp": "2025-12-02T06:27:52.679177+00:00",
        "meta_object_name": "SENTINEL-6B",
        "meta_object_id": "2025-264A",
        "meta_epoch": "2025-12-01T19:31:31.024128",
        "meta_mean_motion": 12.85877276,
        "meta_eccentricity": 0.0011529,
        "meta_inclination": 66.0388,
        "meta_ra_of_asc_node": 185.2519,
        "meta_arg_of_pericenter": 268.8657,
        "meta_mean_anomaly": 91.104,
        "meta_ephemeris_type": 0,
        "meta_classification_type": "U",
        "meta_norad_cat_id": 66514,
        "meta_element_set_no": 999,
        "meta_rev_at_epoch": 188,
        "meta_bstar": 0.00031232,
        "meta_mean_motion_dot": 1.5e-07,
        "meta_mean_motion_ddot": 0,
        "tle_line1": "1 66514U 25264A   25335.81355352  .00000015  00000+0  31232-3 0  9990",
        "tle_line2": "2 66514  66.0388 185.2519 0011529 268.8657  91.1040 12.85877276  1881"
      },
      "geometry": {
        "type": "Point",
        "coordinates": [
          158.2825079271028,
          -44.6062688155381
        ]
      }
    }
  ]
}